[{"OBJECT_NAME":"STARLINK-5474","OBJECT_ID":"2023-021AP","EPOCH":"2026-03-09T16:14:51.371808","MEAN_MOTION":14.98330256,"ECCENTRICITY":0.00032851,"INCLINATION":70.001,"RA_OF_ASC_NODE":164.4503,"ARG_OF_PERICENTER":268.7907,"MEAN_ANOMALY":91.2876,"EPHEMERIS_TYPE":0,"CLASSIFICATION_TYPE":"U","NORAD_CAT_ID":55665,"ELEMENT_SET_NO":999,"REV_AT_EPOCH":16927,"BSTAR":-2.487955e-5,"MEAN_MOTION_DOT":-3.9e-6,"MEAN_MOTION_DDOT":0},{"OBJECT_NAME":"NOAA 16 DEB","OBJECT_ID":"2000-055HK","EPOCH":"2026-03-09T11:22:55.184448","MEAN_MOTION":14.96713123,"ECCENTRICITY":0.00044813,"INCLINATION":98.9091,"RA_OF_ASC_NODE":257.3123,"ARG_OF_PERICENTER":226.904,"MEAN_ANOMALY":133.1803,"EPHEMERIS_TYPE":0,"CLASSIFICATION_TYPE":"U","NORAD_CAT_ID":41307,"ELEMENT_SET_NO":999,"REV_AT_EPOCH":53055,"BSTAR":0.0073865996,"MEAN_MOTION_DOT":0.00085329,"MEAN_MOTION_DDOT":0}]
